[{"OBJECT_NAME":"STARLINK-36308","OBJECT_ID":"2026-070B","EPOCH":"2026-04-09T20:00:01.999008","MEAN_MOTION":15.99033357,"ECCENTRICITY":7.35e-5,"INCLINATION":53.1587,"RA_OF_ASC_NODE":228.849,"ARG_OF_PERICENTER":55.7087,"MEAN_ANOMALY":235.4353,"EPHEMERIS_TYPE":0,"CLASSIFICATION_TYPE":"U","NORAD_CAT_ID":68543,"ELEMENT_SET_NO":999,"REV_AT_EPOCH":233,"BSTAR":-0.0018092,"MEAN_MOTION_DOT":-0.00901532,"MEAN_MOTION_DDOT":0.00027261},{"OBJECT_NAME":"STARLINK-37263","OBJECT_ID":"2026-070C","EPOCH":"2026-04-09T20:00:01.999008","MEAN_MOTION":15.99223533,"ECCENTRICITY":8.32e-5,"INCLINATION":53.1585,"RA_OF_ASC_NODE":228.8426,"ARG_OF_PERICENTER":52.8585,"MEAN_ANOMALY":241.6245,"EPHEMERIS_TYPE":0,"CLASSIFICATION_TYPE":"U","NORAD_CAT_ID":68544,"ELEMENT_SET_NO":999,"REV_AT_EPOCH":238,"BSTAR":-0.0017907,"MEAN_MOTION_DOT":-0.00901999,"MEAN_MOTION_DDOT":0.00027342},{"OBJECT_NAME":"STARLINK-37289","OBJECT_ID":"2026-070D","EPOCH":"2026-04-09T20:00:01.999008","MEAN_MOTION":15.99110289,"ECCENTRICITY":7.81e-5,"INCLINATION":53.1583,"RA_OF_ASC_NODE":228.8467,"ARG_OF_PERICENTER":53.1013,"MEAN_ANOMALY":239.3328,"EPHEMERIS_TYPE":0,"CLASSIFICATION_TYPE":"U","NORAD_CAT_ID":68545,"ELEMENT_SET_NO":999,"REV_AT_EPOCH":238,"BSTAR":-0.0017996,"MEAN_MOTION_DOT":-0.0090067,"MEAN_MOTION_DDOT":0.00027237},{"OBJECT_NAME":"STARLINK-37290","OBJECT_ID":"2026-070E","EPOCH":"2026-04-09T20:00:01.999008","MEAN_MOTION":15.99339493,"ECCENTRICITY":8.47e-5,"INCLINATION":53.1588,"RA_OF_ASC_NODE":228.8378,"ARG_OF_PERICENTER":49.5615,"MEAN_ANOMALY":247.0337,"EPHEMERIS_TYPE":0,"CLASSIFICATION_TYPE":"U","NORAD_CAT_ID":68546,"ELEMENT_SET_NO":999,"REV_AT_EPOCH":238,"BSTAR":-0.0017796,"MEAN_MOTION_DOT":-0.00902318,"MEAN_MOTION_DDOT":0.00027394},{"OBJECT_NAME":"STARLINK-37245","OBJECT_ID":"2026-070F","EPOCH":"2026-04-09T20:00:01.999008","MEAN_MOTION":15.99555711,"ECCENTRICITY":8.89e-5,"INCLINATION":53.1587,"RA_OF_ASC_NODE":228.8298,"ARG_OF_PERICENTER":52.5623,"MEAN_ANOMALY":247.9694,"EPHEMERIS_TYPE":0,"CLASSIFICATION_TYPE":"U","NORAD_CAT_ID":68547,"ELEMENT_SET_NO":999,"REV_AT_EPOCH":238,"BSTAR":-0.0017542,"MEAN_MOTION_DOT":-0.00900447,"MEAN_MOTION_DDOT":0.00027355},{"OBJECT_NAME":"STARLINK-37145","OBJECT_ID":"2026-070G","EPOCH":"2026-04-09T20:00:01.999008","MEAN_MOTION":15.99433044,"ECCENTRICITY":8.46e-5,"INCLINATION":53.1585,"RA_OF_ASC_NODE":228.8345,"ARG_OF_PERICENTER":52.0241,"MEAN_ANOMALY":246.2731,"EPHEMERIS_TYPE":0,"CLASSIFICATION_TYPE":"U","NORAD_CAT_ID":68548,"ELEMENT_SET_NO":999,"REV_AT_EPOCH":238,"BSTAR":-0.0017635,"MEAN_MOTION_DOT":-0.00898945,"MEAN_MOTION_DDOT":0.00027237},{"OBJECT_NAME":"STARLINK-36204","OBJECT_ID":"2026-070H","EPOCH":"2026-04-09T20:00:01.999008","MEAN_MOTION":15.99668659,"ECCENTRICITY":7.33e-5,"INCLINATION":53.1588,"RA_OF_ASC_NODE":228.8256,"ARG_OF_PERICENTER":53.511,"MEAN_ANOMALY":249.0612,"EPHEMERIS_TYPE":0,"CLASSIFICATION_TYPE":"U","NORAD_CAT_ID":68549,"ELEMENT_SET_NO":999,"REV_AT_EPOCH":233,"BSTAR":-0.0017439,"MEAN_MOTION_DOT":-0.00900947,"MEAN_MOTION_DDOT":0.00027415},{"OBJECT_NAME":"STARLINK-36304","OBJECT_ID":"2026-070J","EPOCH":"2026-04-09T20:00:01.999008","MEAN_MOTION":15.99904146,"ECCENTRICITY":7.81e-5,"INCLINATION":53.1587,"RA_OF_ASC_NODE":228.8167,"ARG_OF_PERICENTER":53.0083,"MEAN_ANOMALY":253.8032,"EPHEMERIS_TYPE":0,"CLASSIFICATION_TYPE":"U","NORAD_CAT_ID":68550,"ELEMENT_SET_NO":999,"REV_AT_EPOCH":233,"BSTAR":-0.0017274,"MEAN_MOTION_DOT":-0.00904455,"MEAN_MOTION_DDOT":0.00027678},{"OBJECT_NAME":"STARLINK-37288","OBJECT_ID":"2026-070K","EPOCH":"2026-04-09T20:00:01.999008","MEAN_MOTION":16.00001535,"ECCENTRICITY":7.95e-5,"INCLINATION":53.1586,"RA_OF_ASC_NODE":228.8129,"ARG_OF_PERICENTER":51.6965,"MEAN_ANOMALY":256.8772,"EPHEMERIS_TYPE":0,"CLASSIFICATION_TYPE":"U","NORAD_CAT_ID":68551,"ELEMENT_SET_NO":999,"REV_AT_EPOCH":238,"BSTAR":-0.0017121,"MEAN_MOTION_DOT":-0.00901473,"MEAN_MOTION_DDOT":0.00027543},{"OBJECT_NAME":"STARLINK-37295","OBJECT_ID":"2026-070L","EPOCH":"2026-04-09T20:00:01.999008","MEAN_MOTION":15.99794546,"ECCENTRICITY":7.91e-5,"INCLINATION":53.1584,"RA_OF_ASC_NODE":228.8209,"ARG_OF_PERICENTER":52.5125,"MEAN_ANOMALY":252.3801,"EPHEMERIS_TYPE":0,"CLASSIFICATION_TYPE":"U","NORAD_CAT_ID":68552,"ELEMENT_SET_NO":999,"REV_AT_EPOCH":238,"BSTAR":-0.0017325,"MEAN_MOTION_DOT":-0.00901507,"MEAN_MOTION_DDOT":0.00027483},{"OBJECT_NAME":"STARLINK-37254","OBJECT_ID":"2026-070M","EPOCH":"2026-04-09T20:00:01.999008","MEAN_MOTION":16.00266449,"ECCENTRICITY":6.96e-5,"INCLINATION":53.1583,"RA_OF_ASC_NODE":228.8032,"ARG_OF_PERICENTER":50.709,"MEAN_ANOMALY":262.5607,"EPHEMERIS_TYPE":0,"CLASSIFICATION_TYPE":"U","NORAD_CAT_ID":68553,"ELEMENT_SET_NO":999,"REV_AT_EPOCH":238,"BSTAR":-0.0017193,"MEAN_MOTION_DOT":-0.00918919,"MEAN_MOTION_DDOT":0.00028593},{"OBJECT_NAME":"STARLINK-37255","OBJECT_ID":"2026-070N","EPOCH":"2026-04-09T20:00:01.999008","MEAN_MOTION":16.00368706,"ECCENTRICITY":7.62e-5,"INCLINATION":53.1584,"RA_OF_ASC_NODE":228.7997,"ARG_OF_PERICENTER":42.906,"MEAN_ANOMALY":272.1712,"EPHEMERIS_TYPE":0,"CLASSIFICATION_TYPE":"U","NORAD_CAT_ID":68554,"ELEMENT_SET_NO":999,"REV_AT_EPOCH":238,"BSTAR":-0.0017157,"MEAN_MOTION_DOT":-0.00922363,"MEAN_MOTION_DDOT":0.00028819},{"OBJECT_NAME":"STARLINK-37146","OBJECT_ID":"2026-070P","EPOCH":"2026-04-09T20:00:01.999008","MEAN_MOTION":16.00140151,"ECCENTRICITY":7.35e-5,"INCLINATION":53.1586,"RA_OF_ASC_NODE":228.808,"ARG_OF_PERICENTER":44.7952,"MEAN_ANOMALY":266.2316,"EPHEMERIS_TYPE":0,"CLASSIFICATION_TYPE":"U","NORAD_CAT_ID":68555,"ELEMENT_SET_NO":999,"REV_AT_EPOCH":238,"BSTAR":-0.0017147,"MEAN_MOTION_DOT":-0.00909965,"MEAN_MOTION_DDOT":0.00028054},{"OBJECT_NAME":"STARLINK-37144","OBJECT_ID":"2026-070Q","EPOCH":"2026-04-09T20:00:01.999008","MEAN_MOTION":16.00632752,"ECCENTRICITY":6.43e-5,"INCLINATION":53.1588,"RA_OF_ASC_NODE":228.7901,"ARG_OF_PERICENTER":42.987,"MEAN_ANOMALY":276.5622,"EPHEMERIS_TYPE":0,"CLASSIFICATION_TYPE":"U","NORAD_CAT_ID":68556,"ELEMENT_SET_NO":999,"REV_AT_EPOCH":238,"BSTAR":-0.0017601,"MEAN_MOTION_DOT":-0.00960347,"MEAN_MOTION_DDOT":0.00031086},{"OBJECT_NAME":"STARLINK-37210","OBJECT_ID":"2026-070R","EPOCH":"2026-04-09T20:00:01.999008","MEAN_MOTION":16.0051406,"ECCENTRICITY":6.87e-5,"INCLINATION":53.1587,"RA_OF_ASC_NODE":228.7951,"ARG_OF_PERICENTER":45.8132,"MEAN_ANOMALY":271.7032,"EPHEMERIS_TYPE":0,"CLASSIFICATION_TYPE":"U","NORAD_CAT_ID":68557,"ELEMENT_SET_NO":999,"REV_AT_EPOCH":238,"BSTAR":-0.0017457,"MEAN_MOTION_DOT":-0.00946129,"MEAN_MOTION_DDOT":0.00030221},{"OBJECT_NAME":"STARLINK-37227","OBJECT_ID":"2026-070S","EPOCH":"2026-04-09T20:00:01.999008","MEAN_MOTION":16.00752923,"ECCENTRICITY":6.59e-5,"INCLINATION":53.1585,"RA_OF_ASC_NODE":228.786,"ARG_OF_PERICENTER":43.6445,"MEAN_ANOMALY":277.9579,"EPHEMERIS_TYPE":0,"CLASSIFICATION_TYPE":"U","NORAD_CAT_ID":68558,"ELEMENT_SET_NO":999,"REV_AT_EPOCH":238,"BSTAR":-0.0017751,"MEAN_MOTION_DOT":-0.00975103,"MEAN_MOTION_DDOT":0.00031996}]
